[{"OBJECT_NAME":"STARLINK-33985","OBJECT_ID":"2025-098T","EPOCH":"2026-03-09T22:38:13.435584","MEAN_MOTION":14.983213,"ECCENTRICITY":0.00023047,"INCLINATION":70.0004,"RA_OF_ASC_NODE":273.6729,"ARG_OF_PERICENTER":275.3083,"MEAN_ANOMALY":84.7813,"EPHEMERIS_TYPE":0,"CLASSIFICATION_TYPE":"U","NORAD_CAT_ID":63943,"ELEMENT_SET_NO":999,"REV_AT_EPOCH":4659,"BSTAR":0.00043903687,"MEAN_MOTION_DOT":5.148e-5,"MEAN_MOTION_DDOT":0},{"OBJECT_NAME":"FENGYUN 1C DEB","OBJECT_ID":"1999-025AMM","EPOCH":"2026-03-09T23:05:15.567936","MEAN_MOTION":14.58578294,"ECCENTRICITY":0.02096652,"INCLINATION":98.0952,"RA_OF_ASC_NODE":81.878,"ARG_OF_PERICENTER":224.9272,"MEAN_ANOMALY":164.1003,"EPHEMERIS_TYPE":0,"CLASSIFICATION_TYPE":"U","NORAD_CAT_ID":30606,"ELEMENT_SET_NO":999,"REV_AT_EPOCH":514,"BSTAR":0.00059655112,"MEAN_MOTION_DOT":3.71e-5,"MEAN_MOTION_DDOT":0}]
